ONEWEB-0235             
1 48771U 21045E   24355.54656996 -.00000047  00000+0 -15912-3 0  9991
2 48771  87.9063   7.4269 0001153  79.5219 280.6041 13.15550518172907
ONEWEB-0242             
1 48772U 21045F   24355.76841266 -.00000014  00000+0 -71569-4 0  9997
2 48772  87.9062   7.3697 0001606  85.2708 274.8606 13.15550140172971
ONEWEB-0241             
1 48773U 21045G   24355.60362392 -.00000097  00000+0 -29041-3 0  9997
2 48773  87.9073   7.4669 0001428 100.4862 259.6429 13.15547370172860
ONEWEB-0243             
1 48774U 21045H   24355.78742426  .00000134  00000+0  32226-3 0  9996
2 48774  87.9072   7.3909 0001348  79.4679 280.6603 13.15547636172917
ONEWEB-0222             
1 48775U 21045J   24355.77078819 -.00000089  00000+0 -26966-3 0  9999
2 48775  87.9062   7.3777 0001533  93.6285 266.5020 13.15549521172952
ONEWEB-0244             
1 48776U 21045K   24355.79692931  .00000168  00000+0  41177-3 0  9996
2 48776  87.9059   7.3526 0001685  86.1350 273.9973 13.15550477173524
ONEWEB-0247             
1 48777U 21045L   24355.79376884  .00000108  00000+0  25338-3 0  9998
2 48777  87.9068   7.4086 0000985  61.3430 298.7799 13.15549034172968
ONEWEB-0245             
1 48778U 21045M   24355.78900948  .00000097  00000+0  22270-3 0  9991
2 48778  87.9062   7.3872 0001571  98.2727 261.8582 13.15549340172933
